COSMOS 2434 [GLONASS-M] 
1 32393U 07065A   21048.65578911  .00000053  00000-0  00000+0 0  9992
2 32393  64.4896 258.0115 0004809  76.1294  31.7944  2.13103029102340
COSMOS 2436 [GLONASS-M] 
1 32395U 07065C   21047.89309444  .00000045  00000-0  00000-0 0  9994
2 32395  64.5033 258.0899 0016156   6.6911  12.2605  2.13102898102269
THURAYA-3               
1 32404U 08001A   21048.79626640 -.00000301  00000-0  00000+0 0  9991
2 32404   3.8093  14.5365 0004919 313.2975 205.2773  1.00273279 48026
EXPRESS-AM33            
1 32478U 08003A   21047.96090929 -.00000282  00000-0  00000-0 0  9996
2 32478   0.0444 279.4548 0000865 176.2457 133.8370  1.00270599 48097
THOR 5                  
1 32487U 08006A   21048.33048889 -.00000010  00000-0  00000-0 0  9998
2 32487   0.0338 282.0172 0002380  46.6527 297.0361  1.00272239 47796
AMC-14                  
1 32708U 08011A   21048.19047524  .00000080  00000-0  00000-0 0  9995
2 32708  21.3451  44.2859 0042809 355.2553 194.3863  1.00272253 48649
NAVSTAR 62 (USA 201)    
1 32711U 08012A   21047.68366346  .00000052  00000-0  00000-0 0  9998
2 32711  54.5496 227.6669 0146078 225.8326 132.9443  2.00571584 94732
DIRECTV 11              
1 32729U 08013A   21048.60738427 -.00000126  00000-0  00000-0 0  9997
2 32729   0.0047 160.4891 0000194 246.7554 220.0051  1.00272094 26083
ICO G1                  
1 32763U 08016A   21048.52746757 -.00000173  00000-0  00000+0 0  9995
2 32763   3.7086  17.6975 0002415 322.9706 264.0685  1.00282910 46951
VINASAT-1               
1 32767U 08018A   21048.50051167 -.00000329  00000-0  00000-0 0  9997
2 32767   0.0158 273.7980 0001615  88.1817  97.8339  1.00268410 47094
STAR ONE C2             
1 32768U 08018B   21048.49459865 -.00000265  00000-0  00000-0 0  9992
2 32768   0.0209 136.5256 0001213 195.2526 283.9399  1.00272643 47160
TIANLIAN 1-01           
1 32779U 08019A   21048.56201299 -.00000140  00000-0  00000-0 0  9991
2 32779   4.6559  71.4697 0034157 263.4486  95.1302  1.00272165 46909
CARTOSAT-2A             
1 32783U 08021A   21048.83874220 -.00000243  00000-0 -26088-4 0  9992
2 32783  97.8896 110.5431 0011117 297.0048  62.9971 14.78708747691405
CUTE-1.7+APD II (CO-65) 
1 32785U 08021C   21048.42079704  .00000258  00000-0  33278-4 0  9996
2 32785  97.5991  32.0150 0014100  45.8892 314.3483 14.88632744694316
AAUSAT-II               
1 32788U 08021F   21048.45442480  .00000474  00000-0  47865-4 0  9994
2 32788  97.5001  48.1912 0010617 318.6635  41.3782 14.95389821695920
DELFI-C3 (DO-64)        
1 32789U 08021G   21048.83726317  .00001551  00000-0  10322-3 0  9995
2 32789  97.3914  88.7555 0011837 186.1402 173.9684 15.08497545698890
CANX-2                  
1 32790U 08021H   21048.41353268  .00000221  00000-0  29563-4 0  9993
2 32790  97.6077  30.3411 0014877  49.6084 310.6429 14.88280520694203
SEEDS II (CO-66)        
1 32791U 08021J   21048.59776138  .00000398  00000-0  45309-4 0  9999
2 32791  97.5613  38.2024 0013522  12.3422 347.8125 14.91278165694992
AMOS-3                  
1 32794U 08022A   21048.61697162 -.00000036  00000-0  00000+0 0  9999
2 32794   0.0499 279.1078 0002184  39.0999  47.5397  1.00272015 46943
GALAXY 18 (G-18)        
1 32951U 08024A   21048.59108814  .00000025  00000-0  00000-0 0  9992
2 32951   0.0144 150.8416 0003013 187.6028 259.0969  1.00272850 26378
YUBILEINY (RS-30)       
1 32953U 08025A   21048.71026453  .00000028  00000-0  12906-3 0  9991
2 32953  82.5053 125.4131 0018763 235.5245 124.4060 12.43099897578105
COSMOS 2437             
1 32954U 08025B   21048.41836423  .00000017  00000-0  49850-4 0  9992
2 32954  82.5042 126.9839 0019673 251.3374 108.5570 12.42708778577916
COSMOS 2438             
1 32955U 08025C   21048.48143577  .00000023  00000-0  96444-4 0  9999
2 32955  82.5042 123.6667 0020541 229.6820 130.2467 12.43314310578206
COSMOS 2439             
1 32956U 08025D   21048.47323569  .00000012  00000-0  18996-4 0  9994
2 32956  82.5092 127.1749 0019994 239.6410 120.2718 12.43015830578065
FENGYUN 3A              
1 32958U 08026A   21048.37451757  .00000000  00000-0  19826-4 0  9997
2 32958  98.4363  27.7674 0008608 354.9629   5.1460 14.18647530659448
CHINASAT 9 (ZX 9)       
1 33051U 08028A   21048.57618920 -.00000248  00000-0  00000-0 0  9998
2 33051   0.0333 255.6357 0004062  90.5099 101.2122  1.00270877 46528
FGRST (GLAST)           
1 33053U 08029A   21048.78567561  .00000487  00000-0  11021-4 0  9991
2 33053  25.5813 229.5425 0012141 328.5685  31.4124 15.11460438700493
SKYNET 5C               
1 33055U 08030A   21048.32708668 -.00000141  00000-0  00000-0 0  9999
2 33055   0.0621   9.9071 0003090 316.7608 280.7368  1.00271715 46442
TURKSAT 3A              
1 33056U 08030B   21048.55433623  .00000146  00000-0  00000-0 0  9995
2 33056   0.0360  88.7889 0003534 252.6128  47.8510  1.00271476 32847
INTELSAT 25 (IS-25)     
1 33153U 08034A   21048.32438236 -.00000224  00000-0  00000-0 0  9995
2 33153   0.0290 231.6455 0003368  95.0975 266.0259  1.00274306 46192
BADR-6                  
1 33154U 08034B   21048.55119574  .00000144  00000-0  00000-0 0  9992
2 33154   0.0656  56.9573 0004737 306.9507   8.2100  1.00271905 46243
ECHOSTAR 11             
1 33207U 08035A   21048.64151738 -.00000057  00000-0  00000+0 0  9993
2 33207   0.0538 280.6194 0002367  57.9486 290.1805  1.00272616 46145
SUPERBIRD-C2            
1 33274U 08038A   21048.68452571 -.00000251  00000-0  00000+0 0  9999
2 33274   0.0094 160.9142 0002275 183.9573 193.3510  1.00272597 45878
AMC-21                  
1 33275U 08038B   21048.68101906  .00000036  00000-0  00000+0 0  9993
2 33275   0.0644 289.3235 0002634  47.9213 290.8630  1.00273977 45956
INMARSAT 4-F3           
1 33278U 08039A   21048.60820984 -.00000139  00000-0  00000-0 0  9999
2 33278   3.1804  14.8181 0002622 321.9844 291.9273  1.00271871 27040
HUANJING 1A (HJ-1A)     
1 33320U 08041A   21048.76424958  .00000130  00000-0  25407-4 0  9990
2 33320  97.7547  97.7777 0023626 347.8046  12.2590 14.77118135670816
HUANJING 1B (HJ-1B)     
1 33321U 08041B   21048.79701550  .00000129  00000-0  25052-4 0  9994
2 33321  97.7624 100.4269 0035415  26.1565 334.1410 14.77326731670824
GEOEYE 1                
1 33331U 08042A   21048.84622333  .00000007  00000-0  10340-4 0  9992
2 33331  98.1099 125.5440 0008638  12.0537 348.0857 14.64316955665449
NIMIQ 4                 
1 33373U 08044A   21048.52964847 -.00000220  00000-0  00000-0 0  9990
2 33373   0.0157 101.6419 0002497 235.3948 279.3394  1.00271659 45470
GALAXY 19 (G-19)        
1 33376U 08045A   21048.60938765 -.00000139  00000-0  00000+0 0  9991
2 33376   0.0133 113.9772 0003109 216.8813 299.2880  1.00271563 45320
THEOS                   
1 33396U 08049A   21048.88640745  .00000058  00000-0  47683-4 0  9997
2 33396  98.7051 118.4821 0001247  99.6261  19.4924 14.20046073641892
SJ-6E                   
1 33408U 08053A   21048.40215621 -.00000026  00000-0  29800-5 0  9993
2 33408  97.7978  28.3822 0019764  88.5699 271.7788 14.94388906671033
SJ-6F                   
1 33409U 08053B   21048.82491441  .00000115  00000-0  15802-4 0  9990
2 33409  97.7786  30.0922 0017374  52.6617 307.6205 14.95040734671431
COSMO-SKYMED 3          
1 33412U 08054A   21048.82792893  .00002471  00000-0  31679-3 0  9996
2 33412  97.8849 234.4206 0001524  95.1338 265.0087 14.82171076666386
SHIYAN 3 (SY-3)         
1 33433U 08056A   21048.75650168  .00000007  00000-0  19931-4 0  9992
2 33433  98.7045  55.4626 0014899  81.5952 278.6914 14.29788555641125
CHUANGXIN 1-02 (CX-1-02)
1 33434U 08056B   21048.79619101 -.00000022  00000-0  86704-5 0  9990
2 33434  98.7096  55.2354 0015526  81.7554 278.5379 14.29475459641025
ASTRA 1M                
1 33436U 08057A   21048.33450174  .00000119  00000-0  00000-0 0  9992
2 33436   0.0230 119.5647 0000520 236.3757 291.1534  1.00271498 26228
YAOGAN 4                
1 33446U 08061A   21048.64427934  .00000052  00000-0  14313-4 0  9992
2 33446  97.7615   0.3553 0014828 264.9647  94.9871 14.77068897658020
CIEL-2                  
1 33453U 08063A   21048.58719391  .00000058  00000-0  00000-0 0  9996
2 33453   0.0521 273.2070 0003046  63.2115 253.8660  1.00272835 44635
EUTELSAT HOT BIRD 13C   
1 33459U 08065A   21048.54857866  .00000086  00000-0  00000-0 0  9991
2 33459   0.0354  57.4984 0003817 307.7796 352.8926  1.00271890 27836
EUTELSAT 48D            
1 33460U 08065B   21048.33066336 -.00000091  00000-0  00000-0 0  9991
2 33460   0.2575 100.4852 0004477 221.9839 304.1956  0.99779095 44442
FENGYUN 2E              
1 33463U 08066A   21048.56332153 -.00000204  00000-0  00000-0 0  9999
2 33463   4.8544  67.7056 0004347 321.9276  47.7150  1.00265889 44589
GOSAT (IBUKI)           
1 33492U 09002A   21048.57118763  .00000087  00000-0  23784-4 0  9998
2 33492  98.0758 161.9379 0001412  84.4762 275.6604 14.67545461646105
STARS (KUKAI)           
1 33498U 09002G   21048.60833572  .00000214  00000-0  36170-4 0  9995
2 33498  98.2317 285.9772 0011333  18.0046 342.1564 14.79279234649742
KKS-1 (KISEKI)          
1 33499U 09002H   21048.85860965  .00000097  00000-0  22114-4 0  9991
2 33499  98.2865 276.0363 0010274  65.9535 294.2747 14.75617995649202
NOAA 19                 
1 33591U 09005A   21048.76485857  .00000016  00000-0  33874-4 0  9996
2 33591  99.1925  66.4513 0014880 107.2890 252.9910 14.12452391620021
EXPRESS-AM44            
1 33595U 09007A   21048.32848245 -.00000090  00000-0  00000-0 0  9992
2 33595   0.0427 279.5240 0000962 155.8502 179.3655  1.00272294 44047
NSS-9                   
1 33749U 09008A   21048.59248205  .00000072  00000-0  00000-0 0  9992
2 33749   0.0538 302.5065 0002123  29.8294 211.7859  1.00273960 44028
EUTELSAT 33E            
1 33750U 09008B   21048.55259152  .00000155  00000-0  00000-0 0  9995
2 33750   0.0578 347.5250 0004142 341.5228  50.7168  1.00268741 43937
